# From MPEC 2022-S20
C/1995 O1 (Hale-Bopp),e,89.4856,282.2628,130.2292,177.5007,0.0004168,0.99497823,0.0000,03/30.6913/1997,2000,g -2.0,4.0
# From NK 1615
P/1996 R2 (Lagerkvist),e,2.5997,40.0576,333.4339,3.773772,0.1344437,0.31452285,253.3405,04/13.0/2024,2000,g 11.5,4.0
# From MPC 75703
P/1998 VS24 (LINEAR),e,5.0282,159.0652,244.7434,4.522627,0.1024750,0.24365592,232.7290,04/13.0/2024,2000,g 13.0,2.0
# From NK 731
P/1999 RO28 (LONEOS),e,7.5668,137.8670,231.3278,3.425932,0.1554304,0.67238381,272.1518,04/13.0/2024,2000,g 20.0,2.0
# From MPC 75704
P/1999 XN120 (Catalina),e,5.0296,285.2589,161.6792,4.179274,0.1153593,0.21085959,288.6666,04/13.0/2024,2000,g 13.5,2.0
# From NK 744
P/2000 R2 (LINEAR),e,11.6815,160.2894,176.5910,3.468466,0.1525801,0.53087585,268.7254,04/13.0/2024,2000,g 18.0,4.0
# From MPC 43019
P/2001 H5 (NEAT),e,8.3690,328.6433,224.6527,6.095534,0.0654917,0.59844853,203.6842,04/13.0/2024,2000,g 12.0,4.0
# From MPEC 2023-UR6
P/2002 EJ57 (LINEAR),e,4.9835,330.2586,167.2555,6.457797,0.0600589,0.59320586,127.6686,04/13.0/2024,2000,g 12.5,4.0
# From MPC 75007
C/2002 VQ94 (LINEAR),e,70.7065,35.1575,99.8432,185.2396,0.0003909,0.96343665,2.5963,04/13.0/2024,2000,g  9.5,2.0
# From MPC 50354
P/2003 F2 (NEAT),e,11.6446,358.9418,192.3432,6.503733,0.0594237,0.54159005,95.8508,04/13.0/2024,2000,g 16.5,2.0
# From MPC 50139
P/2003 QX29 (NEAT),e,11.3983,264.5345,37.6711,8.005710,0.0435115,0.47179349,339.0661,04/13.0/2024,2000,g  8.5,4.0
# From MPC105235
P/2003 T12 (SOHO),e,11.0250,174.5785,219.7841,2.584273,0.2372447,0.77027001,340.6037,04/13.0/2024,2000,g 17.0,4.0
# From MPEC 2022-YN2
P/2004 FY140 (LINEAR),e,2.1620,327.2695,254.1157,4.970121,0.0889516,0.19210019,267.0554,04/13.0/2024,2000,g 12.5,2.0
# From MPC 53304
P/2004 R3 (LINEAR-NEAT),e,12.7925,305.1264,37.5186,4.753345,0.0951054,0.25448332,89.2199,04/13.0/2024,2000,g 14.5,4.0
# From MPC 75705
P/2004 V5 (LINEAR-Hill),e,19.3481,47.7389,87.3761,8.015935,0.0434283,0.44694023,307.3296,04/13.0/2024,2000,g  8.0,4.0
# From MPC 75705
P/2004 V5-B (LINEAR-Hill),e,19.3481,47.7392,87.3793,8.016321,0.0434252,0.44696370,307.2915,04/13.0/2024,2000,g  8.0,4.0
# From MPC 54164
P/2005 E1 (Tubbiolo),e,4.2617,335.5229,193.8708,7.061944,0.0525192,0.37655914,10.4107,04/13.0/2024,2000,g 10.0,4.0
# From MPC 79019
P/2005 J1 (McNaught),e,31.7399,268.7993,338.9148,3.573608,0.1458961,0.56907548,293.6495,04/13.0/2024,2000,g 16.5,4.0
# From MPC 74246
P/2005 L1 (McNaught),e,7.6813,135.5130,153.2485,4.005843,0.1229315,0.22487530,107.9354,04/13.0/2024,2000,g  9.5,4.0
# From MPC 75706
P/2005 S2 (Skiff),e,3.1370,161.3554,229.7295,7.992804,0.0436170,0.19887613,283.8892,04/13.0/2024,2000,g  7.5,4.0
# From MPC 75706
P/2005 SB216 (LONEOS),e,24.1100,1.1275,83.2152,7.153888,0.0515099,0.46561666,326.9512,04/13.0/2024,2000,g 12.0,2.0
# From MPC 73461
P/2005 T3 (Read),e,6.2279,27.6510,6.8334,7.585382,0.0471778,0.17538719,319.6535,04/13.0/2024,2000,g  9.0,4.0
# From MPC 73461
P/2005 T4 (SWAN),e,160.2837,25.9367,41.8738,9.354483,0.0344488,0.93016362,232.5914,04/13.0/2024,2000,g 15.0,4.0
# From MPC 75706
P/2005 T5 (Broughton),e,21.3835,57.0687,304.7351,7.268155,0.0503000,0.55229970,338.4854,04/13.0/2024,2000,g 11.0,4.0
# From MPEC 2024-DD5
P/2005 XR132 (Spacewatch),e,14.4756,265.3984,240.7676,3.758558,0.1352609,0.43236036,166.8058,04/13.0/2024,2000,g 16.0,4.0
# From MPC 75707
P/2006 HR30 (Siding Spring),e,31.9212,309.8136,117.4353,7.802783,0.0452199,0.84361270,285.8450,04/13.0/2024,2000,g 11.0,4.0
# From MPC 75707
P/2007 C2 (Catalina),e,8.6122,275.2518,180.1574,7.009491,0.0531098,0.47315812,322.4072,04/13.0/2024,2000,g 10.0,4.0
# From MPC 84315
C/2007 D1 (LINEAR),e,41.5056,171.1508,339.6954,1152,0.0000252,0.99240251,0.0000,06/10.0138/2007,2000,g  3.5,4.0
# From MPC 82314
P/2007 K2 (Gibbs),e,7.6179,188.5557,347.2669,7.305029,0.0499196,0.68457029,310.6854,04/13.0/2024,2000,g 14.0,4.0
# From MPC 60925
P/2007 Q2 (Gilmore),e,10.1992,172.2003,162.8738,5.660839,0.0731784,0.66937543,90.2779,04/13.0/2024,2000,g 16.0,4.0
# From MPC 73462
P/2007 S1 (Zhao),e,5.9647,141.3323,245.2195,3.817175,0.1321572,0.33839208,73.2538,04/13.0/2024,2000,g 13.0,4.0
# From MPC 61994
P/2007 T2 (Kowalski),e,9.7508,3.3854,359.6719,3.043973,0.1855850,0.78564492,27.3525,04/13.0/2024,2000,g 18.5,4.0
# From MPC 64114
P/2008 O3 (Boattini),e,32.3291,47.6082,341.1838,8.210213,0.0418960,0.69658069,242.3383,04/13.0/2024,2000,g 13.0,4.0
# From MPC 75710
P/2008 Y3 (McNaught),e,38.7786,262.8384,238.0538,8.043424,0.0432059,0.44714878,241.8463,04/13.0/2024,2000,g  8.5,4.0
# From MPC 75710
P/2009 B1 (Boattini),e,22.2542,297.1050,128.9450,6.732325,0.0564230,0.63605789,314.3931,04/13.0/2024,2000,g 13.0,4.0
# From MPC 66466
C/2009 G1 (STEREO),e,108.2653,120.7586,175.5437,468.3379,0.0000972,0.99756131,0.0000,04/18.1057/2009,2000,g  9.0,4.0
# From MPC 75710
P/2009 O3 (Hill),e,16.2719,183.7124,154.4721,7.768134,0.0455228,0.68694010,247.2305,04/13.0/2024,2000,g 12.5,4.0
# From MPC 68902
P/2009 Q5 (McNaught),e,40.9750,160.2626,209.1691,7.425861,0.0487062,0.60974876,258.9771,04/13.0/2024,2000,g 10.0,4.0
# From MPC112389
P/2009 T2 (La Sagra),e,27.6147,216.3557,215.9251,7.712496,0.0460163,0.76730628,239.6929,04/13.0/2024,2000,g 14.0,4.0
# From MPC105235
P/2009 WX51 (Catalina),e,9.5940,31.5432,118.2647,3.082626,0.1821054,0.73941399,226.6523,04/13.0/2024,2000,g 19.0,2.0
# From MPC 74247
P/2009 Y2 (Kowalski),e,29.9725,262.0837,172.1708,6.544643,0.0588674,0.63738027,303.3307,04/13.0/2024,2000,g 13.0,4.0
# From MPC 75711
P/2010 A3 (Hill),e,14.8189,63.6446,42.2321,6.095738,0.0654884,0.73413831,338.2262,04/13.0/2024,2000,g 14.0,4.0
# From MPC 75008
P/2010 C1 (Scotti),e,9.1171,141.6305,3.1020,7.118759,0.0518917,0.26255950,275.5638,04/13.0/2024,2000,g  9.5,4.0
# From MPC 75008
P/2010 D2 (WISE),e,57.1202,319.8728,119.9434,6.721374,0.0565610,0.45175006,293.1376,04/13.0/2024,2000,g 16.0,4.0
# From MPC 75009
P/2010 E2 (Jarnac),e,15.4006,177.8010,8.2529,8.638611,0.0388185,0.71994311,199.5490,04/13.0/2024,2000,g 14.0,4.0
# From MPC 72851
P/2010 H2 (Vales),e,14.2796,64.1875,128.0539,3.831953,0.1313935,0.19726382,316.5484,04/13.0/2024,2000,g  6.0,4.0
# From MPC 70361
P/2010 H3 (SOHO),e,23.1466,77.1812,26.0634,3.035943,0.1863218,0.98551511,0.0000,05/25.1440/2026,2000,g 20.0,2.0
# From MPC 73463
P/2010 H4 (Scotti),e,2.3180,44.6216,179.1131,6.610199,0.0579939,0.26617844,294.4066,04/13.0/2024,2000,g 10.5,4.0
# From MPC 74637
P/2010 H5 (Scotti),e,14.0572,24.5888,174.5723,7.175551,0.0512768,0.15338733,264.3601,04/13.0/2024,2000,g 13.0,2.0
# From MPC 98558
P/2010 J3 (McMillan),e,13.2383,106.5203,157.4914,8.985811,0.0365905,0.72442762,182.5495,04/13.0/2024,2000,g 11.0,4.0
# From MPC 84315
P/2010 JC81 (WISE),e,38.8133,30.8759,12.4631,8.103202,0.0427286,0.77830574,202.1067,04/13.0/2024,2000,g  9.0,4.0
# From MPC 74248
P/2010 T2 (PANSTARRS),e,7.8927,57.9556,351.4935,5.645914,0.0734688,0.33062235,2.9302,04/13.0/2024,2000,g 11.5,4.0
# From MPC 82316
P/2010 U1 (Boattini),e,8.2261,280.8049,86.4221,6.492597,0.0595767,0.24896658,307.6570,04/13.0/2024,2000,g  9.5,4.0
# From MPEC 2023-J95
C/2010 U3 (Boattini),e,55.5660,42.9877,88.0467,5032,0.0000028,0.99832312,0.0000,02/26.4327/2019,2000,g  1.0,4.0
# From MPC 79021
P/2010 UH55 (Spacewatch),e,8.0369,232.8842,225.1934,6.652287,0.0574444,0.56446342,273.1798,04/13.0/2024,2000,g 11.0,4.0
# From MPC 75009
P/2010 WK (LINEAR),e,11.4021,11.3438,40.9940,5.764416,0.0712149,0.69082227,352.9284,04/13.0/2024,2000,g 14.5,2.0
# From MPC 84021
P/2011 C2 (Gibbs),e,10.8893,11.9538,160.3283,7.412444,0.0488385,0.26999611,220.4037,04/13.0/2024,2000,g  9.0,4.0
# From MPC 79866
P/2011 FR143 (Lemmon),e,15.9699,190.8679,349.7869,6.872327,0.0547077,0.45173489,263.8111,04/13.0/2024,2000,g 14.0,2.0
# From MPC 82317
P/2011 JB15 (Spacewatch-Boattini),e,19.1318,153.5693,110.8997,7.375227,0.0492086,0.31475005,220.5935,04/13.0/2024,2000,g  9.0,4.0
# From MPC 87913
P/2011 N1 (ASH),e,35.7836,77.6283,330.4294,6.238677,0.0632507,0.54556192,274.2019,04/13.0/2024,2000,g 11.5,4.0
# From MPEC 2022-ED3
P/2011 P1 (McNaught),e,5.6561,4.2847,349.1900,7.458551,0.0483863,0.32713586,241.8536,04/13.0/2024,2000,g  9.0,4.0
# From MPEC 2022-HC2
P/2011 S1 (Gibbs),e,2.6890,218.8959,192.7073,8.588434,0.0391591,0.20167731,137.9237,04/13.0/2024,2000,g  8.0,4.0
# From MPC 79022
P/2011 UA134 (Spacewatch-PANSTARRS),e,10.4406,40.3993,32.4218,5.610940,0.0741567,0.63015085,337.0264,04/13.0/2024,2000,g 17.5,4.0
# From MPEC 2023-UR6
P/2011 V1 (Boattini),e,7.3842,46.4835,269.6705,3.855539,0.1301896,0.54862113,263.5992,04/13.0/2024,2000,g 15.5,4.0
# From MPC 82718
P/2011 W1 (PANSTARRS),e,3.7171,161.8277,282.8780,4.671186,0.0976255,0.28854877,77.5381,04/13.0/2024,2000,g 11.5,4.0
# From MPC 79342
P/2011 Y2 (Boattini),e,6.3866,309.3326,132.0047,6.233559,0.0633286,0.71104088,279.7516,04/13.0/2024,2000,g 15.0,4.0
# From MPEC 2022-K19
P/2012 B1 (PANSTARRS),e,7.6088,36.2156,162.1103,6.535700,0.0589883,0.40961739,232.6039,04/13.0/2024,2000,g  9.0,4.0
# From MPC 78590
P/2012 C3 (PANSTARRS),e,9.0920,135.3677,344.9542,9.748681,0.0323806,0.63011148,359.9758,10/06.0/2011,2000,g 13.0,4.0
# From MPC 84931
P/2012 F2 (PANSTARRS),e,14.6985,226.9581,33.2404,6.342391,0.0617056,0.54021932,248.7541,04/13.0/2024,2000,g 12.0,4.0
# From MPEC 2022-ED3
P/2012 G1 (PANSTARRS),e,12.1684,283.2523,266.0680,4.164195,0.1159865,0.32905758,149.8338,04/13.0/2024,2000,g 15.0,4.0
# From MPC 80898
P/2012 K3 (Gibbs),e,13.1845,125.8156,172.2032,3.630551,0.1424772,0.42184537,242.5989,04/13.0/2024,2000,g 15.0,4.0
# From MPC 88326
P/2012 NJ (La Sagra),e,84.4467,315.6451,338.4063,8.467723,0.0399995,0.84643484,172.8040,04/13.0/2024,2000,g 14.5,4.0
# From MPC 81470
P/2012 O1 (McNaught),e,7.4277,91.9480,238.3025,3.542477,0.1478235,0.59377270,276.1781,04/13.0/2024,2000,g 17.5,4.0
# From MPC 80899
P/2012 O2 (McNaught),e,24.4604,120.6746,183.4538,3.628043,0.1426249,0.53137006,257.5198,04/13.0/2024,2000,g 17.0,4.0
# From MPC 82320
P/2012 T2 (PANSTARRS),e,12.5705,73.8820,310.9547,5.722124,0.0720059,0.16248177,287.2181,04/13.0/2024,2000,g 10.0,4.0
# From MPC 80900
